[{"OBJECT_NAME":"YUNHAI-2 01C","OBJECT_ID":"2018-112C","EPOCH":"2026-03-09T23:40:43.339008","MEAN_MOTION":14.28951205,"ECCENTRICITY":5.385e-5,"INCLINATION":50.0116,"RA_OF_ASC_NODE":48.4892,"ARG_OF_PERICENTER":172.1642,"MEAN_ANOMALY":187.9282,"EPHEMERIS_TYPE":0,"CLASSIFICATION_TYPE":"U","NORAD_CAT_ID":43911,"ELEMENT_SET_NO":999,"REV_AT_EPOCH":37760,"BSTAR":8.3785899e-5,"MEAN_MOTION_DOT":5.2e-7,"MEAN_MOTION_DDOT":0},{"OBJECT_NAME":"CZ-6A DEB","OBJECT_ID":"2024-140ADU","EPOCH":"2026-03-07T11:29:13.858368","MEAN_MOTION":14.35705267,"ECCENTRICITY":0.00427971,"INCLINATION":88.5132,"RA_OF_ASC_NODE":251.3418,"ARG_OF_PERICENTER":214.3181,"MEAN_ANOMALY":145.5252,"EPHEMERIS_TYPE":0,"CLASSIFICATION_TYPE":"U","NORAD_CAT_ID":64630,"ELEMENT_SET_NO":999,"REV_AT_EPOCH":7881,"BSTAR":0.0012641104,"MEAN_MOTION_DOT":3.703e-5,"MEAN_MOTION_DDOT":0}]
